{
    "links": {
        "self": "http://www.neowsapp.com/rest/v1/neo/3843906?api_key=iIulBulltgU6a56xZRHN4H3l9WmuAYTsLGpBGhQ2"
    },
    "id": "3843906",
    "neo_reference_id": "3843906",
    "name": "(2019 SG1)",
    "designation": "2019 SG1",
    "nasa_jpl_url": "http://ssd.jpl.nasa.gov/sbdb.cgi?sstr=3843906",
    "absolute_magnitude_h": 27.8,
    "estimated_diameter": {
        "kilometers": {
            "estimated_diameter_min": 0.0073207399,
            "estimated_diameter_max": 0.016369672
        },
        "meters": {
            "estimated_diameter_min": 7.3207398935,
            "estimated_diameter_max": 16.3696720474
        },
        "miles": {
            "estimated_diameter_min": 0.0045488955,
            "estimated_diameter_max": 0.0101716395
        },
        "feet": {
            "estimated_diameter_min": 24.0181762721,
            "estimated_diameter_max": 53.70627484
        }
    },
    "is_potentially_hazardous_asteroid": false,
    "close_approach_data": [
        {
            "close_approach_date": "2019-09-22",
            "close_approach_date_full": "2019-Sep-22 21:08",
            "epoch_date_close_approach": 1569186480000,
            "relative_velocity": {
                "kilometers_per_second": "17.4421590764",
                "kilometers_per_hour": "62791.7726749183",
                "miles_per_hour": "39016.3656379236"
            },
            "miss_distance": {
                "astronomical": "0.0056748932",
                "lunar": "2.2075334548",
                "kilometers": "848951.935197484",
                "miles": "527514.2713699192"
            },
            "orbiting_body": "Earth"
        },
        {
            "close_approach_date": "2019-09-22",
            "close_approach_date_full": "2019-Sep-22 23:18",
            "epoch_date_close_approach": 1569194280000,
            "relative_velocity": {
                "kilometers_per_second": "16.5254843551",
                "kilometers_per_hour": "59491.7436784568",
                "miles_per_hour": "36965.8559539834"
            },
            "miss_distance": {
                "astronomical": "0.0038371653",
                "lunar": "1.4926573017",
                "kilometers": "574031.755717911",
                "miles": "356686.7932167318"
            },
            "orbiting_body": "Moon"
        }
    ],
    "orbital_data": {
        "orbit_id": "2",
        "orbit_determination_date": "2019-09-27 05:58:46",
        "first_observation_date": "2019-09-20",
        "last_observation_date": "2019-09-22",
        "data_arc_in_days": 2,
        "observations_used": 25,
        "orbit_uncertainty": "8",
        "minimum_orbit_intersection": ".00288843",
        "jupiter_tisserand_invariant": "3.108",
        "epoch_osculation": "2458747.5",
        "eccentricity": ".6980746433185081",
        "semi_major_axis": "2.446760944748717",
        "inclination": "2.322148914213836",
        "ascending_node_longitude": "183.7434930314864",
        "orbital_period": "1397.931001993533",
        "perihelion_distance": ".7387391709576004",
        "perihelion_argument": "244.9387630222073",
        "aphelion_distance": "4.154782718539833",
        "perihelion_time": "2458791.956558027884",
        "mean_anomaly": "348.55139426251",
        "mean_motion": ".2575234396308678",
        "equinox": "J2000",
        "orbit_class": {
            "orbit_class_type": "APO",
            "orbit_class_description": "Near-Earth asteroid orbits which cross the Earth’s orbit similar to that of 1862 Apollo",
            "orbit_class_range": "a (semi-major axis) > 1.0 AU; q (perihelion) < 1.017 AU"
        }
    },
    "is_sentry_object": false
}